satname,norad_id,inclination_deg,eccentricity,mean_motion_rev_per_day,perigee_km,apogee_km,l1,l2
STARLINK-1316,45415,53.1561,0.0001628,15.41219448,441.39877564183735,443.61957803701625,1 45415U 20019BH  26183.61618757  .00055429  00000+0  13144-2 0  9991,2 45415  53.1561 311.0636 0001628 176.0338 184.0680 15.41219448347658
STARLINK-1286,45417,53.0458,0.000484,15.66966366,364.324502634312,370.8543658226454,1 45417U 20019BK  26183.57235448  .00062109  00000+0  57426-3 0  9995,2 45417  53.0458 292.8965 0004840 338.4248  21.6562 15.66966366348132
STARLINK-1308,45419,53.046,0.0004876,15.68255209,360.6056094392943,367.180437117996,1 45419U 20019BM  26183.63884147  .00053259  00000+0  46855-3 0  9990,2 45419  53.0460 311.7025 0004876 105.1683 254.9872 15.68255209347623
STARLINK-1329,45531,53.0385,0.000335,15.76764054,337.36559421789934,341.8664887556952,1 45531U 20025A   26183.44095068  .00081046  00000+0  49353-3 0  9998,2 45531  53.0385 234.9404 0003350 348.4476  11.6466 15.76764054343466
STARLINK-1338,45532,53.0411,0.0002579,15.73748173,346.46104040936916,349.930482847818,1 45532U 20025B   26183.53185464  .00060411  00000+0  42164-3 0  9995,2 45532  53.0411 241.9029 0002579  49.3791 310.7451 15.73748173343375
STARLINK-1350,45535,53.0692,0.0001706,15.39355482,446.8494883674621,449.17857109880606,1 45535U 20025E   26183.78105001  .00039980  00000+0  10129-2 0  9996,2 45535  53.0692 211.4698 0001706  46.3936 313.7209 15.39355482343869
STARLINK-1362,45538,53.1577,0.0003628,15.39608594,444.78960589507096,449.74211821177687,1 45538U 20025H   26183.55210637  .00024994  00000+0  63294-3 0  9997,2 45538  53.1577 284.0002 0003628 302.0176  58.0476 15.39608594342817
STARLINK-1368,45540,53.1555,0.0002524,15.39888599,444.71591795018867,448.16096363270026,1 45540U 20025K   26183.69298888  .00046901  00000+0  11649-2 0  9997,2 45540  53.1555 283.6777 0002524 299.0822  60.9930 15.39888599342820
STARLINK-1371,45542,53.042,0.0002333,15.7089082,354.7786566400282,357.9209681867005,1 45542U 20025M   26183.56602281  .00037254  00000+0  29606-3 0  9995,2 45542  53.0420 252.1326 0002333  45.3817 314.7390 15.70890820343238
STARLINK-1372,45543,53.1571,0.0002939,15.40386011,442.9638841131409,446.974505934576,1 45543U 20025N   26183.70926350  .00068026  00000+0  16532-2 0  9992,2 45543  53.1571 283.0212 0002939 283.3143  76.7534 15.40386011341931
STARLINK-1373,45544,53.0428,0.0002867,15.72658385,349.3734549760102,353.23211574893685,1 45544U 20025P   26183.41630238  .00064037  00000+0  46773-3 0  9997,2 45544  53.0428 247.6413 0002867  43.1089 317.0152 15.72658385343280
STARLINK-1327,45555,53.0379,0.0002344,15.74354942,344.8911483240845,348.0436428647399,1 45555U 20025AA  26183.53123492  .00062410  00000+0  42414-3 0  9992,2 45555  53.0379 224.3262 0002344  59.3664 300.7585 15.74354942343619
STARLINK-1356,45564,53.0404,0.0004113,15.67334124,363.76010186928215,369.3082683861676,1 45564U 20025AK  26183.55840941  .00045781  00000+0  41929-3 0  9991,2 45564  53.0404 238.1493 0004113  16.6660 343.4490 15.67334124343425
STARLINK-1357,45565,53.0411,0.000141,15.72336414,351.27244220992725,353.1704032851412,1 45565U 20025AL  26183.26332581  .00066057  00000+0  48891-3 0  9990,2 45565  53.0411 195.4992 0001410 174.1901 185.9133 15.72336414344006
STARLINK-1361,45567,53.0396,0.0002417,15.70929438,354.6117443679386,357.8671419405582,1 45567U 20025AN  26183.66743929  .00054086  00000+0  42615-3 0  9995,2 45567  53.0396 235.7458 0002417  58.2553 301.8699 15.70929438343476
STARLINK-1376,45570,53.155,0.0001493,15.40659335,443.1436232885235,445.1807618274215,1 45570U 20025AR  26183.48478363  .00044250  00000+0  10725-2 0  9994,2 45570  53.1550 260.4053 0001493 303.5809  56.5054 15.40659335343137
STARLINK-1320,45572,53.036,0.0005997,15.96343012,280.5792181986926,288.57047478737695,1 45572U 20025AT  26184.41675926  .00266660  39405-4  62905-3 0  9999,2 45572  53.0360 124.9883 0005997  70.5453 163.6896 15.96343012  6000
STARLINK-1321,45573,53.0384,0.0002059,15.71366954,353.60299861414023,356.37570004479403,1 45573U 20025AU  26183.79576844  .00054225  00000+0  41948-3 0  9999,2 45573  53.0384 218.9108 0002059  59.5502 300.5718 15.71366954343416
STARLINK-1331,45578,53.0428,0.0001847,15.71167826,354.31452292020185,356.8019499405391,1 45578U 20025AZ  26183.82239900  .00064054  00000+0  49825-3 0  9990,2 45578  53.0428 225.7306 0001847  56.2928 303.8265 15.71167826343630
STARLINK-1333,45580,53.1549,0.0003069,15.37542523,451.28231943658557,455.4755039031688,1 45580U 20025BB  26183.51656417  .00045850  00000+0  12297-2 0  9990,2 45580  53.1549 262.3061 0003069 331.6840  28.3996 15.37542523343110
STARLINK-1335,45581,53.1522,0.0002751,15.39393138,446.0248667610176,449.78055380961723,1 45581U 20025BC  26183.71348943  .00044520  00000+0  11247-2 0  9992,2 45581  53.1522 257.7940 0002751 286.7314  73.3389 15.39393138343180
STARLINK-1337,45582,53.0406,0.000186,15.78308284,333.98483595824655,336.4822097927572,1 45582U 20025BD  26183.79613515  .00085121  00000+0  48361-3 0  9991,2 45582  53.0406 213.5793 0001860  78.0975 282.0254 15.78308284343789
STARLINK-1347,45586,53.0356,0.0001753,15.71239894,354.17195141550656,356.53271277533895,1 45586U 20025BH  26183.25204844  .00063634  00000+0  49355-3 0  9996,2 45586  53.0356 187.9182 0001753  45.7293 314.3867 15.71239894344095
STARLINK-1364,45589,53.0392,0.0004179,15.72138691,349.9728624996833,355.5985677049657,1 45589U 20025BL  26183.81962442  .00066925  00000+0  49921-3 0  9991,2 45589  53.0392 221.6724 0004179  20.8711 339.2476 15.72138691343679
STARLINK-1365,45590,53.0437,0.0001586,15.6751429,364.94774241347386,367.0869881781464,1 45590U 20025BM  26183.48107586  .00051409  00000+0  46660-3 0  9994,2 45590  53.0437 258.7892 0001586  35.8323 324.2798 15.67514290343142
STARLINK-1443,45660,53.1312,0.0001899,15.34541112,460.9848618246797,463.58285366645123,1 45660U 20035D   26183.55772440  .00037728  00000+0  11171-2 0  9994,2 45660  53.1312 251.2617 0001899  29.8814 330.2297 15.34541112336343
STARLINK-1446,45663,53.0201,0.0002271,15.49101182,417.8104441552223,420.897864637549,1 45663U 20035G   26183.25159685  .00030184  00000+0  55259-3 0  9999,2 45663  53.0201 172.8006 0002271 349.8968  10.1993 15.49101182337390
STARLINK-1448,45665,53.0389,0.0002332,15.75631946,341.26617639892174,344.4008370432566,1 45665U 20035J   26183.76556814  .00080110  00000+0  51286-3 0  9992,2 45665  53.0389 209.0961 0002332  67.7753 292.3513 15.75631946336923
STARLINK-1451,45668,53.0508,0.0001217,15.15398813,518.9285883873736,520.6075384798141,1 45668U 20035M   26183.63631984  .00021665  00000+0  11464-2 0  9996,2 45668  53.0508 264.9061 0001217 348.1720  11.9244 15.15398813336148
STARLINK-1452,45669,53.021,0.0008177,15.63318052,372.5557948362339,383.6049126965836,1 45669U 20035N   26183.37025402  .00089838  00000+0  95349-3 0  9991,2 45669  53.0210 188.0396 0008177  28.5088 331.6371 15.63318052337193
STARLINK-1453,45670,53.036,0.0001953,15.76227978,339.8268215378257,342.4513707809856,1 45670U 20035P   26183.78992259  .00099057  00000+0  61551-3 0  9993,2 45670  53.0360 169.1712 0001953 101.9559 258.1679 15.76227978337382
STARLINK-1454,45671,53.0408,0.0001828,15.74137496,345.85728644034134,348.31602820945864,1 45671U 20035Q   26183.79579120  .00076566  00000+0  52342-3 0  9991,2 45671  53.0408 210.4655 0001828  61.0216 299.0986 15.74137496336904
STARLINK-1456,45673,53.0387,0.0001524,15.70761407,355.6933122759601,357.7460965994733,1 45673U 20035S   26183.47877449  .00069956  00000+0  55267-3 0  9997,2 45673  53.0387 206.9991 0001524  62.7964 297.3208 15.70761407336949
STARLINK-1458,45675,53.0433,0.0003718,15.61724775,380.1610471528111,385.18838674553353,1 45675U 20035U   26183.64046054  .00097950  00000+0  11058-2 0  9992,2 45675  53.0433 222.3949 0003718  40.8621 319.2670 15.61724775336700
STARLINK-1460,45676,53.1541,0.000389,15.37494066,450.86493405415877,456.17996510593093,1 45676U 20035V   26183.55977436  .00027687  00000+0  74955-3 0  9996,2 45676  53.1541 249.3206 0003890 338.3596  21.7243 15.37494066336334
STARLINK-1392,45677,53.1508,0.0004553,15.40943206,440.2184907918754,446.4301134535899,1 45677U 20035W   26183.58822396  .00063127  00000+0  15075-2 0  9990,2 45677  53.1508 247.2157 0004553 340.6065  19.4767 15.40943206336406
STARLINK-1394,45679,53.0381,0.0001607,15.69386469,359.56980783668314,361.7356548563366,1 45679U 20035Y   26183.74798303  .00048176  00000+0  40552-3 0  9996,2 45679  53.0381 196.0786 0001607  69.3695 290.7494 15.69386469337119
STARLINK-1402,45685,53.0383,0.0001384,15.65431908,371.06266539954413,372.931102458615,1 45685U 20035AE  26184.41675926  .00941596  00000+0  83836-2 0  9992,2 45685  53.0383 184.9926 0001384  77.0154  97.1063 15.65431908  5969
STARLINK-1404,45686,53.1545,0.0003925,15.46795941,423.4354960129576,428.7768268946993,1 45686U 20035AF  26183.41667918  .00029156  00000+0  57852-3 0  9993,2 45686  53.1545 228.5776 0003925 325.8276  34.2479 15.46795941336656
STARLINK-1413,45689,53.1562,0.0004109,15.37252677,451.43017465041794,457.0450200945397,1 45689U 20035AJ  26183.53490391  .00037097  00000+0  10073-2 0  9994,2 45689  53.1562 234.0948 0004109 348.8814  11.2098 15.37252677336509
STARLINK-1417,45693,53.0481,0.0002559,15.17982213,510.176471571348,513.7028127968179,1 45693U 20035AN  26183.56092541  .00021328  00000+0  10490-2 0  9990,2 45693  53.0481 251.4555 0002559 251.5495 108.5221 15.17982213336313
STARLINK-1420,45695,53.0433,0.0001844,15.73334221,348.1349774897144,350.6160841110732,1 45695U 20035AQ  26183.70904134  .00069014  00000+0  48920-3 0  9992,2 45695  53.0433 178.8538 0001844  99.8855 260.2371 15.73334221337353
STARLINK-1422,45696,53.1539,0.0001587,15.39091366,447.711508400429,449.8783765989783,1 45696U 20035AR  26183.85145385  .00046335  00000+0  11816-2 0  9998,2 45696  53.1539 232.4317 0001587  65.5295 294.5875 15.39091366336637
